[{"OBJECT_NAME":"ONEWEB-0506","OBJECT_ID":"2022-138M","EPOCH":"2026-03-09T16:53:46.892544","MEAN_MOTION":13.19725453,"ECCENTRICITY":0.00015959,"INCLINATION":87.9238,"RA_OF_ASC_NODE":324.778,"ARG_OF_PERICENTER":91.0951,"MEAN_ANOMALY":269.0364,"EPHEMERIS_TYPE":0,"CLASSIFICATION_TYPE":"U","NORAD_CAT_ID":54124,"ELEMENT_SET_NO":999,"REV_AT_EPOCH":16368,"BSTAR":-0.00052081839,"MEAN_MOTION_DOT":-1.96e-6,"MEAN_MOTION_DDOT":0},{"OBJECT_NAME":"COSMOS 1691 DEB","OBJECT_ID":"1985-094P","EPOCH":"2026-03-09T09:31:23.633184","MEAN_MOTION":12.69123476,"ECCENTRICITY":0.02586158,"INCLINATION":82.7307,"RA_OF_ASC_NODE":48.6536,"ARG_OF_PERICENTER":274.5257,"MEAN_ANOMALY":202.2775,"EPHEMERIS_TYPE":0,"CLASSIFICATION_TYPE":"U","NORAD_CAT_ID":16270,"ELEMENT_SET_NO":999,"REV_AT_EPOCH":86912,"BSTAR":0.00083876094,"MEAN_MOTION_DOT":1.97e-6,"MEAN_MOTION_DDOT":0}]
